NORAD_CAT_ID,OBJECT_NAME,OBJECT_TYPE,EPOCH,MEAN_MOTION,ECCENTRICITY,INCLINATION,RA_OF_ASC_NODE,ARG_OF_PERICENTER,MEAN_ANOMALY,BSTAR,MEAN_MOTION_DOT,MEAN_MOTION_DDOT,TLE_LINE0,TLE_LINE1,TLE_LINE2,SEMIMAJOR_AXIS,PERIOD,APOGEE,PERIGEE,DECAYED
56497.0,STARLINK-5527,PAYLOAD,2024-07-19 07:21:50,14.98331188,0.0003337,69.9999,173.0659,265.6267,94.451,0.00020498,2.354e-05,0.0,0 STARLINK-5527,1 56497U 23064BB  24201.30683238  .00002354  00000-0  20498-3 0  9998,2 56497  69.9999 173.0659 0003337 265.6267  94.4510 14.98331188 66602,6950.189,96.107,574.373,569.735,0.0
56497.0,STARLINK-5527,PAYLOAD,2024-07-19 15:22:30,14.98331501,0.0003339,70.0,172.2241,267.6133,92.4644,0.00013789,1.553e-05,0.0,0 STARLINK-5527,1 56497U 23064BB  24201.64063313  .00001553  00000-0  13789-3 0  9996,2 56497  70.0000 172.2241 0003339 267.6133  92.4644 14.98331501 66652,6950.188,96.107,574.374,569.733,0.0
56497.0,STARLINK-5527,PAYLOAD,2024-07-20 05:47:43,14.98335452,0.0003138,70.0004,170.7099,266.0472,94.0329,3.4811e-05,3.22e-06,0.0,0 STARLINK-5527,1 56497U 23064BB  24202.24147253  .00000322  00000-0  34811-4 0  9992,2 56497  70.0004 170.7099 0003138 266.0472  94.0329 14.98335452 67104,6950.176,96.107,574.222,569.86,0.0
56497.0,STARLINK-5527,PAYLOAD,2024-07-20 15:24:31,14.98335678,0.000322,70.0002,169.6992,269.3661,90.7129,-1.9543e-05,-3.26e-06,0.0,0 STARLINK-5527,1 56497U 23064BB  24202.64203257 -.00000326  00000-0 -19543-4 0  9994,2 56497  70.0002 169.6992 0003220 269.3661  90.7129 14.98335678 66806,6950.175,96.107,574.278,569.802,0.0
56497.0,STARLINK-5527,PAYLOAD,2024-07-21 07:25:52,14.98332903,0.0003186,70.0003,168.0174,264.6111,95.4685,9.953e-06,2.6e-07,0.0,0 STARLINK-5527,1 56497U 23064BB  24203.30963275  .00000026  00000-0  99530-5 0  9991,2 56497  70.0003 168.0174 0003186 264.6111  95.4685 14.98332903 67269,6950.184,96.107,574.263,569.835,0.0
56497.0,STARLINK-5527,PAYLOAD,2024-07-21 21:51:05,14.98322842,0.0003155,70.0,166.5026,265.6846,94.3952,0.00011734,1.307e-05,0.0,0 STARLINK-5527,1 56497U 23064BB  24203.91047590  .00001307  00000-0  11734-3 0  9992,2 56497  70.0000 166.5026 0003155 265.6846  94.3952 14.98322842 66992,6950.215,96.107,574.273,569.887,0.0
56497.0,STARLINK-5527,PAYLOAD,2024-07-22 07:27:53,14.98331062,0.0003036,70.0002,165.4929,265.7724,94.3088,4.87e-05,4.88e-06,0.0,0 STARLINK-5527,1 56497U 23064BB  24204.31103257  .00000488  00000-0  48700-4 0  9993,2 56497  70.0002 165.4929 0003036 265.7724  94.3088 14.98331062 67410,6950.19,96.107,574.165,569.945,0.0
56497.0,STARLINK-5527,PAYLOAD,2024-07-22 21:53:05,14.9833015,0.0003138,69.9998,163.976,268.1031,91.9768,7.949e-05,8.56e-06,0.0,0 STARLINK-5527,1 56497U 23064BB  24204.91187157  .00000856  00000-0  79490-4 0  9999,2 56497  69.9998 163.9760 0003138 268.1031  91.9768 14.98330150 67143,6950.192,96.107,574.238,569.876,0.0
56497.0,STARLINK-5527,PAYLOAD,2024-07-23 07:29:53,14.98339469,0.0002992,70.0001,162.9678,266.2234,93.8583,0.00014082,1.588e-05,0.0,0 STARLINK-5527,1 56497U 23064BB  24205.31242361  .00001588  00000-0  14082-3 0  9991,2 56497  70.0001 162.9678 0002992 266.2234  93.8583 14.98339469 67563,6950.164,96.106,574.108,569.949,0.0
56497.0,STARLINK-5527,PAYLOAD,2024-07-23 20:18:58,14.98325482,0.0002386,70.0016,161.6222,254.7672,105.3224,3.1052e-05,2.78e-06,0.0,0 STARLINK-5527,1 56497U 23064BB  24205.84651534  .00000278  00000-0  31052-4 0  9997,2 56497  70.0016 161.6222 0002386 254.7672 105.3224 14.98325482 67645,6950.207,96.107,573.73,570.414,0.0
56497.0,STARLINK-5527,PAYLOAD,2024-07-24 04:19:39,14.98319277,0.0002499,70.0013,160.7799,258.2956,101.7922,-4.8046e-05,-6.66e-06,0.0,0 STARLINK-5527,1 56497U 23064BB  24206.18032269 -.00000666  00000-0 -48046-4 0  9997,2 56497  70.0013 160.7799 0002499 258.2956 101.7922 14.98319277 67695,6950.226,96.108,573.828,570.354,0.0
56497.0,STARLINK-5527,PAYLOAD,2024-07-24 07:31:56,14.98319441,0.0002461,70.0013,160.4429,263.8017,96.2862,-4.5156e-05,-6.31e-06,0.0,0 STARLINK-5527,1 56497U 23064BB  24206.31384361 -.00000631  00000-0 -45156-4 0  9996,2 56497  70.0013 160.4429 0002461 263.8017  96.2862 14.98319441 67358,6950.226,96.108,573.801,570.38,0.0
56497.0,STARLINK-5527,PAYLOAD,2024-07-24 20:20:59,14.98336551,0.0003241,69.9992,159.0952,271.5902,88.4886,-1.4865e-05,-2.7e-06,0.0,0 STARLINK-5527,1 56497U 23064BB  24206.84791138 -.00000270  00000-0 -14865-4 0  9990,2 56497  69.9992 159.0952 0003241 271.5902  88.4886 14.98336551 67790,6950.173,96.107,574.29,569.785,0.0
56497.0,STARLINK-5527,PAYLOAD,2024-07-25 05:57:47,14.98344016,0.0003025,69.9998,158.0853,272.3208,87.7605,8.9733e-05,9.78e-06,0.0,0 STARLINK-5527,1 56497U 23064BB  24207.24846214  .00000978  00000-0  89733-4 0  9990,2 56497  69.9998 158.0853 0003025 272.3208  87.7605 14.98344016 67856,6950.15,96.106,574.117,569.912,0.0
56497.0,STARLINK-5527,PAYLOAD,2024-07-25 20:23:00,14.98325382,0.0002152,70.0021,156.5724,261.8332,98.2583,0.00012642,1.416e-05,0.0,0 STARLINK-5527,1 56497U 23064BB  24207.84931185  .00001416  00000-0  12642-3 0  9990,2 56497  70.0021 156.5724 0002152 261.8332  98.2583 14.98325382 67944,6950.207,96.107,573.568,570.576,0.0
56497.0,STARLINK-5527,PAYLOAD,2024-07-25 21:59:08,14.9832385,0.0002242,70.0018,156.4039,259.8612,100.2295,0.00010563,1.167e-05,0.0,0 STARLINK-5527,1 56497U 23064BB  24207.91607320  .00001167  00000-0  10563-3 0  9992,2 56497  70.0018 156.4039 0002242 259.8612 100.2295 14.98323850 67599,6950.212,96.107,573.635,570.519,0.0
56497.0,STARLINK-5527,PAYLOAD,2024-07-26 05:59:48,14.98327472,0.0002949,70.0,155.5609,267.429,92.6532,0.00011038,1.224e-05,0.0,0 STARLINK-5527,1 56497U 23064BB  24208.24987155  .00001224  00000-0  11038-3 0  9998,2 56497  70.0000 155.5609 0002949 267.4290  92.6532 14.98327472 67642,6950.201,96.107,574.115,570.016,0.0
56497.0,STARLINK-5527,PAYLOAD,2024-07-26 14:00:28,14.98332983,0.000328,69.9995,154.7203,273.4421,86.6363,5.2153e-05,5.29e-06,0.0,0 STARLINK-5527,1 56497U 23064BB  24208.58366869  .00000529  00000-0  52153-4 0  9999,2 56497  69.9995 154.7203 0003280 273.4421  86.6363 14.98332983 67698,6950.184,96.107,574.328,569.769,0.0
56497.0,STARLINK-5527,PAYLOAD,2024-07-27 04:25:41,14.98340582,0.0003206,69.9996,153.2052,268.3424,91.7368,-1.8818e-05,-3.18e-06,0.0,0 STARLINK-5527,1 56497U 23064BB  24209.18450327 -.00000318  00000-0 -18818-4 0  9997,2 56497  69.9996 153.2052 0003206 268.3424  91.7368 14.98340582 68146,6950.16,96.106,574.253,569.797,0.0
56497.0,STARLINK-5527,PAYLOAD,2024-07-27 06:01:48,14.98342466,0.0003173,69.9998,153.0369,268.3587,91.7208,7.6793e-06,-1e-08,0.0,0 STARLINK-5527,1 56497U 23064BB  24209.25126104 -.00000001  00000-0  76793-5 0  9993,2 56497  69.9998 153.0369 0003173 268.3587  91.7208 14.98342466 67796,6950.154,96.106,574.225,569.814,0.0
56497.0,STARLINK-5527,PAYLOAD,2024-07-27 22:03:10,14.98320637,0.0003143,70.0003,151.3541,270.0802,89.9997,-2.1056e-05,-3.44e-06,0.0,0 STARLINK-5527,1 56497U 23064BB  24209.91887521 -.00000344  00000-0 -21056-4 0  9995,2 56497  70.0003 151.3541 0003143 270.0802  89.9997 14.98320637 67897,6950.222,96.108,574.271,569.902,0.0
56497.0,STARLINK-5527,PAYLOAD,2024-07-28 04:27:42,14.9832448,0.0003221,70.0001,150.681,271.2073,88.8717,-1.1015e-05,-2.24e-06,0.0,0 STARLINK-5527,1 56497U 23064BB  24210.18591360 -.00000224  00000-0 -11015-4 0  9990,2 56497  70.0001 150.6810 0003221 271.2073  88.8717 14.98324480 68299,6950.21,96.107,574.314,569.836,0.0
56497.0,STARLINK-5527,PAYLOAD,2024-07-28 22:05:11,14.98326171,0.0003122,70.0003,148.8294,271.4208,88.6593,-5.6406e-05,-7.66e-06,0.0,0 STARLINK-5527,1 56497U 23064BB  24210.92027564 -.00000766  00000-0 -56406-4 0  9996,2 56497  70.0003 148.8294 0003122 271.4208  88.6593 14.98326171 68040,6950.205,96.107,574.24,569.9,0.0
56497.0,STARLINK-5527,PAYLOAD,2024-07-29 04:29:43,14.98328027,0.0002871,70.0008,148.1565,271.0548,89.0282,3.2096e-05,2.9e-06,0.0,0 STARLINK-5527,1 56497U 23064BB  24211.18731242  .00000290  00000-0  32096-4 0  9999,2 56497  70.0008 148.1565 0002871 271.0548  89.0282 14.98328027 68448,6950.199,96.107,574.059,570.069,0.0
56497.0,STARLINK-5527,PAYLOAD,2024-07-29 12:30:21,14.98405065,0.0002803,70.0003,147.3144,264.1738,95.9102,-0.00097451,-0.00011724,0.0,0 STARLINK-5527,1 56497U 23064BB  24211.52108446 -.00011724  00000-0 -97451-3 0  9992,2 56497  70.0003 147.3144 0002803 264.1738  95.9102 14.98405065 68496,6949.961,96.102,573.774,569.878,0.0
56497.0,STARLINK-5527,PAYLOAD,2024-07-29 20:31:03,14.98338099,0.0003043,70.0003,146.4732,271.7085,88.3725,0.00022312,2.571e-05,0.0,0 STARLINK-5527,1 56497U 23064BB  24211.85489877  .00002571  00000-0  22312-3 0  9990,2 56497  70.0003 146.4732 0003043 271.7085  88.3725 14.98338099 68540,6950.168,96.106,574.148,569.918,0.0
56497.0,STARLINK-5527,PAYLOAD,2024-07-29 22:07:11,14.98338892,0.0003033,70.0003,146.3049,271.7172,88.364,0.00022872,2.638e-05,0.0,0 STARLINK-5527,1 56497U 23064BB  24211.92165788  .00002638  00000-0  22872-3 0  9995,2 56497  70.0003 146.3049 0003033 271.7172  88.3640 14.98338892 68194,6950.165,96.106,574.138,569.922,0.0
56497.0,STARLINK-5527,PAYLOAD,2024-07-30 12:32:23,14.98339557,0.0002976,70.0002,144.7892,275.3467,84.7353,0.00016437,1.869e-05,0.0,0 STARLINK-5527,1 56497U 23064BB  24212.52249601  .00001869  00000-0  16437-3 0  9994,2 56497  70.0002 144.7892 0002976 275.3467  84.7353 14.98339557 68283,6950.163,96.106,574.097,569.96,0.0
56497.0,STARLINK-5527,PAYLOAD,2024-07-30 18:56:56,14.98332506,0.0001861,70.0027,144.1167,263.5596,96.5352,0.00012601,1.411e-05,0.0,0 STARLINK-5527,1 56497U 23064BB  24212.78954217  .00001411  00000-0  12601-3 0  9990,2 56497  70.0027 144.1167 0001861 263.5596  96.5352 14.98332506 68684,6950.185,96.107,573.344,570.757,0.0
56497.0,STARLINK-5527,PAYLOAD,2024-07-30 22:09:12,14.98311727,0.0002441,70.002,143.7805,271.7877,88.3002,0.00037879,4.427e-05,0.0,0 STARLINK-5527,1 56497U 23064BB  24212.92306663  .00004427  00000-0  37879-3 0  9996,2 56497  70.0020 143.7805 0002441 271.7877  88.3002 14.98311727 68345,6950.249,96.108,573.811,570.418,0.0
